NORAD_CAT_ID,OBJECT_NAME,OBJECT_TYPE,EPOCH,MEAN_MOTION,ECCENTRICITY,INCLINATION,RA_OF_ASC_NODE,ARG_OF_PERICENTER,MEAN_ANOMALY,BSTAR,MEAN_MOTION_DOT,MEAN_MOTION_DDOT,TLE_LINE0,TLE_LINE1,TLE_LINE2,SEMIMAJOR_AXIS,PERIOD,APOGEE,PERIGEE,DECAYED
56470.0,STARLINK-5523,PAYLOAD,2024-01-05 07:11:29,14.98328349,0.0002838,70.0008,327.5448,266.2834,93.8001,6.8085e-06,-1.2e-07,0.0,0 STARLINK-5523,1 56470U 23064Y   24005.29965071 -.00000012  00000-0  68085-5 0  9993,2 56470  70.0008 327.5448 0002838 266.2834  93.8001 14.98328349 36746,6950.198,96.107,574.035,570.091,0.0
56470.0,STARLINK-5523,PAYLOAD,2024-01-05 21:36:42,14.98331611,0.0002889,70.0006,326.0297,267.622,92.4608,3.2348e-05,2.93e-06,0.0,0 STARLINK-5523,1 56470U 23064Y   24005.90048801  .00000293  00000-0  32348-4 0  9996,2 56470  70.0006 326.0297 0002889 267.6220  92.4608 14.98331611 36834,6950.188,96.107,574.061,570.045,0.0
56470.0,STARLINK-5523,PAYLOAD,2024-01-06 04:01:14,14.98331954,0.0002788,70.0007,325.3565,262.1943,97.8899,6.4824e-05,6.81e-06,0.0,0 STARLINK-5523,1 56470U 23064Y   24006.16752633  .00000681  00000-0  64824-4 0  9995,2 56470  70.0007 325.3565 0002788 262.1943  97.8899 14.98331954 37231,6950.187,96.107,573.99,570.114,0.0
56470.0,STARLINK-5523,PAYLOAD,2024-01-06 07:13:30,14.98334604,0.0002803,70.0009,325.0207,260.5046,99.5796,6.7497e-05,7.13e-06,0.0,0 STARLINK-5523,1 56470U 23064Y   24006.30104414  .00000713  00000-0  67497-4 0  9994,2 56470  70.0009 325.0207 0002803 260.5046  99.5796 14.98334604 36898,6950.179,96.107,573.992,570.096,0.0
56470.0,STARLINK-5523,PAYLOAD,2024-01-06 21:38:43,14.98329231,0.0002526,70.0017,323.5042,247.1507,112.9386,4.5118e-05,4.45e-06,0.0,0 STARLINK-5523,1 56470U 23064Y   24006.90188708  .00000445  00000-0  45118-4 0  9996,2 56470  70.0017 323.5042 0002526 247.1507 112.9386 14.98329231 36987,6950.195,96.107,573.816,570.305,0.0
56470.0,STARLINK-5523,PAYLOAD,2024-01-07 04:03:15,14.98327446,0.0002609,70.0012,322.8317,262.861,97.2252,-7.0259e-06,-1.77e-06,0.0,0 STARLINK-5523,1 56470U 23064Y   24007.16893064 -.00000177  00000-0 -70259-5 0  9992,2 56470  70.0012 322.8317 0002609 262.8610  97.2252 14.98327446 37388,6950.201,96.107,573.879,570.252,0.0
56470.0,STARLINK-5523,PAYLOAD,2024-01-07 07:15:31,14.98332365,0.0002766,70.0009,322.4956,272.7338,87.3504,3.4156e-05,3.15e-06,0.0,0 STARLINK-5523,1 56470U 23064Y   24007.30244686  .00000315  00000-0  34156-4 0  9995,2 56470  70.0009 322.4956 0002766 272.7338  87.3504 14.98332365 37049,6950.186,96.107,573.973,570.128,0.0
56470.0,STARLINK-5523,PAYLOAD,2024-01-07 21:40:44,14.98331994,0.0002723,70.0012,320.9794,272.2893,87.7954,-9.5907e-06,-2.07e-06,0.0,0 STARLINK-5523,1 56470U 23064Y   24007.90328716 -.00000207  00000-0 -95907-5 0  9992,2 56470  70.0012 320.9794 0002723 272.2893  87.7954 14.98331994 37130,6950.187,96.107,573.944,570.159,0.0
56470.0,STARLINK-5523,PAYLOAD,2024-01-08 07:17:32,14.98335148,0.000263,70.0008,319.9694,265.757,94.3288,2.0905e-05,1.57e-06,0.0,0 STARLINK-5523,1 56470U 23064Y   24008.30384317  .00000157  00000-0  20905-4 0  9993,2 56470  70.0008 319.9694 0002630 265.7570  94.3288 14.98335148 37553,6950.177,96.107,573.87,570.214,0.0
56470.0,STARLINK-5523,PAYLOAD,2024-01-08 21:42:44,14.98328065,0.0002524,70.0013,318.4551,262.3225,97.7648,2.985e-06,-5.7e-07,0.0,0 STARLINK-5523,1 56470U 23064Y   24008.90468687 -.00000057  00000-0  29850-5 0  9991,2 56470  70.0013 318.4551 0002524 262.3225  97.7648 14.98328065 37284,6950.199,96.107,573.818,570.31,0.0
56470.0,STARLINK-5523,PAYLOAD,2024-01-09 04:07:17,14.98326522,0.0002534,70.0013,317.7822,261.2048,98.8824,-2.5623e-06,-1.23e-06,0.0,0 STARLINK-5523,1 56470U 23064Y   24009.17172835 -.00000123  00000-0 -25623-5 0  9997,2 56470  70.0013 317.7822 0002534 261.2048  98.8824 14.98326522 37687,6950.204,96.107,573.83,570.307,0.0
56470.0,STARLINK-5523,PAYLOAD,2024-01-09 07:19:33,14.9832632,0.0002398,70.0019,317.4466,252.2209,107.8688,1.0453e-05,3.2e-07,0.0,0 STARLINK-5523,1 56470U 23064Y   24009.30524810  .00000032  00000-0  10453-4 0  9997,2 56470  70.0019 317.4466 0002398 252.2209 107.8688 14.98326320 37349,6950.204,96.107,573.736,570.403,0.0
56470.0,STARLINK-5523,PAYLOAD,2024-01-09 21:44:45,14.98331178,0.0002522,70.0016,315.9321,251.853,108.2355,1.5752e-06,-7.4e-07,0.0,0 STARLINK-5523,1 56470U 23064Y   24009.90608460 -.00000074  00000-0  15752-5 0  9992,2 56470  70.0016 315.9321 0002522 251.8530 108.2355 14.98331178 37433,6950.189,96.107,573.807,570.301,0.0
56470.0,STARLINK-5523,PAYLOAD,2024-01-10 05:45:25,14.98332086,0.0002498,70.0018,315.0909,250.0518,110.0372,-3.5018e-06,-1.35e-06,0.0,0 STARLINK-5523,1 56470U 23064Y   24010.23988376 -.00000135  00000-0 -35018-5 0  9993,2 56470  70.0018 315.0909 0002498 250.0518 110.0372 14.98332086 37841,6950.186,96.107,573.788,570.315,0.0
56470.0,STARLINK-5523,PAYLOAD,2024-01-11 05:47:26,14.98330636,0.0002483,70.0016,312.5663,257.0223,103.0659,3.4803e-05,3.22e-06,0.0,0 STARLINK-5523,1 56470U 23064Y   24011.24128343  .00000322  00000-0  34803-4 0  9991,2 56470  70.0016 312.5663 0002483 257.0223 103.0659 14.98330636 37997,6950.191,96.107,573.782,570.33,0.0
56470.0,STARLINK-5523,PAYLOAD,2024-01-11 21:48:47,14.98330988,0.0002406,70.0017,310.8828,258.6236,101.4653,1.2085e-05,5.1e-07,0.0,0 STARLINK-5523,1 56470U 23064Y   24011.90888348  .00000051  00000-0  12085-4 0  9999,2 56470  70.0017 310.8828 0002406 258.6236 101.4653 14.98330988 37736,6950.19,96.107,573.727,570.383,0.0
56470.0,STARLINK-5523,PAYLOAD,2024-01-12 05:49:27,14.98331916,0.000242,70.0016,310.0415,258.8303,101.2584,2.0046e-05,1.46e-06,0.0,0 STARLINK-5523,1 56470U 23064Y   24012.24268250  .00000146  00000-0  20046-4 0  9992,2 56470  70.0016 310.0415 0002420 258.8303 101.2584 14.98331916 38141,6950.187,96.107,573.734,570.37,0.0
56470.0,STARLINK-5523,PAYLOAD,2024-01-12 20:14:40,14.98302331,0.0002239,70.0017,308.5267,262.0642,98.0263,0.00041946,4.912e-05,0.0,0 STARLINK-5523,1 56470U 23064Y   24012.84352698  .00004912  00000-0  41946-3 0  9994,2 56470  70.0017 308.5267 0002239 262.0642  98.0263 14.98302331 38236,6950.278,96.109,573.7,570.587,0.0
56470.0,STARLINK-5523,PAYLOAD,2024-01-12 21:50:48,14.98322785,0.0002095,70.0017,308.3584,253.9226,106.1702,7.2942e-05,7.77e-06,0.0,0 STARLINK-5523,1 56470U 23064Y   24012.91028633  .00000777  00000-0  72942-4 0  9997,2 56470  70.0017 308.3584 0002095 253.9226 106.1702 14.98322785 37887,6950.215,96.107,573.536,570.624,0.0
56470.0,STARLINK-5523,PAYLOAD,2024-01-13 04:15:21,14.98325116,0.0002423,70.0015,307.6849,260.2835,99.8051,-5.3617e-05,-7.32e-06,0.0,0 STARLINK-5523,1 56470U 23064Y   24013.17732919 -.00000732  00000-0 -53617-4 0  9996,2 56470  70.0015 307.6849 0002423 260.2835  99.8051 14.98325116 38284,6950.208,96.107,573.757,570.389,0.0
56470.0,STARLINK-5523,PAYLOAD,2024-01-13 05:51:29,14.98329133,0.0002132,70.0015,307.5157,255.1742,104.9181,-8.3905e-05,-1.094e-05,0.0,0 STARLINK-5523,1 56470U 23064Y   24013.24408759 -.00001094  00000-0 -83905-4 0  9991,2 56470  70.0015 307.5157 0002132 255.1742 104.9181 14.98329133 37938,6950.196,96.107,573.542,570.579,0.0
56470.0,STARLINK-5523,PAYLOAD,2024-01-14 04:17:21,14.98332565,0.0002687,70.0013,305.1591,263.4009,96.6844,3.7909e-05,3.59e-06,0.0,0 STARLINK-5523,1 56470U 23064Y   24014.17872203  .00000359  00000-0  37909-4 0  9997,2 56470  70.0013 305.1591 0002687 263.4009  96.6844 14.98332565 38437,6950.185,96.107,573.917,570.182,0.0
56470.0,STARLINK-5523,PAYLOAD,2024-01-14 05:53:29,14.9833495,0.0002743,70.0011,304.9899,267.0912,92.9933,7.6126e-05,8.16e-06,0.0,0 STARLINK-5523,1 56470U 23064Y   24014.24547951  .00000816  00000-0  76126-4 0  9996,2 56470  70.0011 304.9899 0002743 267.0912  92.9933 14.98334950 38088,6950.178,96.107,573.949,570.136,0.0
56470.0,STARLINK-5523,PAYLOAD,2024-01-14 21:54:50,14.98327432,0.0002454,70.0014,303.3063,259.6964,100.3918,7.6358e-05,8.18e-06,0.0,0 STARLINK-5523,1 56470U 23064Y   24014.91308335  .00000818  00000-0  76358-4 0  9990,2 56470  70.0014 303.3063 0002454 259.6964 100.3918 14.98327432 38185,6950.201,96.107,573.771,570.36,0.0
56470.0,STARLINK-5523,PAYLOAD,2024-01-15 05:55:30,14.98317976,0.000252,70.002,302.4653,254.4106,105.6775,0.00034274,3.998e-05,0.0,0 STARLINK-5523,1 56470U 23064Y   24015.24688269  .00003998  00000-0  34274-3 0  9996,2 56470  70.0020 302.4653 0002520 254.4106 105.6775 14.98317976 38598,6950.23,96.108,573.847,570.344,0.0
56470.0,STARLINK-5523,PAYLOAD,2024-01-15 20:20:43,14.98324931,0.000233,70.0034,300.9533,224.3365,135.7608,-2.5831e-05,-4.01e-06,0.0,0 STARLINK-5523,1 56470U 23064Y   24015.84772729 -.00000401  00000-0 -25831-4 0  9995,2 56470  70.0034 300.9533 0002330 224.3365 135.7608 14.98324931 38324,6950.209,96.107,573.693,570.454,0.0
56470.0,STARLINK-5523,PAYLOAD,2024-01-16 04:21:24,14.98323562,0.0002714,70.001,300.1098,260.7182,99.367,-0.00010514,-1.347e-05,0.0,0 STARLINK-5523,1 56470U 23064Y   24016.18153236 -.00001347  00000-0 -10514-3 0  9990,2 56470  70.0010 300.1098 0002714 260.7182  99.3670 14.98323562 38371,6950.213,96.107,573.964,570.192,0.0
56470.0,STARLINK-5523,PAYLOAD,2024-01-16 18:46:36,14.98334201,0.0003207,70.0001,298.5939,272.6761,87.4031,-6.8003e-05,-9.04e-06,0.0,0 STARLINK-5523,1 56470U 23064Y   24016.78236582 -.00000904  00000-0 -68003-4 0  9997,2 56470  70.0001 298.5939 0003207 272.6761  87.4031 14.98334201 38829,6950.18,96.107,574.274,569.816,0.0
56470.0,STARLINK-5523,PAYLOAD,2024-01-16 21:58:52,14.98335804,0.000304,70.0002,298.2557,268.1871,91.894,-4.0414e-05,-5.75e-06,0.0,0 STARLINK-5523,1 56470U 23064Y   24016.91588333 -.00000575  00000-0 -40414-4 0  9996,2 56470  70.0002 298.2557 0003040 268.1871  91.8940 14.98335804 38480,6950.175,96.107,574.153,569.927,0.0
56470.0,STARLINK-5523,PAYLOAD,2024-01-17 04:23:23,14.98341937,0.0002821,70.0006,297.583,265.3128,94.7709,6.593e-05,6.94e-06,0.0,0 STARLINK-5523,1 56470U 23064Y   24017.18291514  .00000694  00000-0  65930-4 0  9998,2 56470  70.0006 297.5830 0002821 265.3128  94.7709 14.98341937 38883,6950.156,96.106,573.982,570.06,0.0
